{
    "links": {
        "self": "http://www.neowsapp.com/rest/v1/neo/3547993?api_key=iIulBulltgU6a56xZRHN4H3l9WmuAYTsLGpBGhQ2"
    },
    "id": "3547993",
    "neo_reference_id": "3547993",
    "name": "(2010 TK6)",
    "designation": "2010 TK6",
    "nasa_jpl_url": "http://ssd.jpl.nasa.gov/sbdb.cgi?sstr=3547993",
    "absolute_magnitude_h": 21.6,
    "estimated_diameter": {
        "kilometers": {
            "estimated_diameter_min": 0.1272198785,
            "estimated_diameter_max": 0.2844722965
        },
        "meters": {
            "estimated_diameter_min": 127.2198785394,
            "estimated_diameter_max": 284.4722965033
        },
        "miles": {
            "estimated_diameter_min": 0.0790507431,
            "estimated_diameter_max": 0.1767628354
        },
        "feet": {
            "estimated_diameter_min": 417.3880663071,
            "estimated_diameter_max": 933.3080892598
        }
    },
    "is_potentially_hazardous_asteroid": false,
    "close_approach_data": [
        {
            "close_approach_date": "2010-09-24",
            "close_approach_date_full": "2010-Sep-24 14:43",
            "epoch_date_close_approach": 1285339380000,
            "relative_velocity": {
                "kilometers_per_second": "17.8287138463",
                "kilometers_per_hour": "64183.3698466994",
                "miles_per_hour": "39881.0500028005"
            },
            "miss_distance": {
                "astronomical": "0.2835352504",
                "lunar": "110.2952124056",
                "kilometers": "42416269.529756648",
                "miles": "26356247.7303438224"
            },
            "orbiting_body": "Earth"
        }
    ],
    "orbital_data": {
        "orbit_id": "9",
        "orbit_determination_date": "2017-04-06 08:56:26",
        "first_observation_date": "2010-10-04",
        "last_observation_date": "2010-10-10",
        "data_arc_in_days": 6,
        "observations_used": 22,
        "orbit_uncertainty": "9",
        "minimum_orbit_intersection": ".25596",
        "jupiter_tisserand_invariant": "3.948",
        "epoch_osculation": "2455475.5",
        "eccentricity": ".3479475073736532",
        "semi_major_axis": "1.727236260134534",
        "inclination": "29.99127022719941",
        "ascending_node_longitude": "191.0452310727133",
        "orbital_period": "829.1365245711561",
        "perihelion_distance": "1.126248708775332",
        "perihelion_argument": "119.9455692448922",
        "aphelion_distance": "2.328223811493736",
        "perihelion_time": "2455417.363061962233",
        "mean_anomaly": "25.24228166696808",
        "mean_motion": ".4341866379438516",
        "equinox": "J2000",
        "orbit_class": {
            "orbit_class_type": "AMO",
            "orbit_class_description": "Near-Earth asteroid orbits similar to that of 1221 Amor",
            "orbit_class_range": "1.017 AU < q (perihelion) < 1.3 AU"
        }
    },
    "is_sentry_object": false
}